CRE (WAAS/PRN 138)      
1 28868U 05036A   22044.59514809 -.00000071  00000+0  00000+0 0  9996
2 28868   0.2485  94.1073 0002854 273.2676 243.1555  1.00272656 30567
IOR-W (EGNOS/PRN 126)   
1 28899U 05044A   22044.51585551  .00000014  00000+0  00000+0 0  9999
2 28899   3.4079  36.2003 0002984 290.4520  66.4566  1.00271886 59628
QZS-1 (QZSS/PRN 183)    
1 37158U 10045A   22044.55931973 -.00000180  00000+0  00000+0 0  9996
2 37158  42.2054 135.1067 0765540 270.6292  81.6811  1.00262845 41852
GSAT-8 (GAGAN/PRN 127)  
1 37605U 11022A   22044.44233057  .00000087  00000+0  00000+0 0  9990
2 37605   0.0551 276.5533 0007660   5.9046  75.3035  1.00273640 37329
LUCH 5A (SDCM/PRN 140)  
1 37951U 11074B   22044.63658834 -.00000046  00000+0  00000+0 0  9992
2 37951   4.7081 100.1455 0002856 240.1155 199.5062  1.00274941 37305
SES-5 (EGNOS/PRN 136)   
1 38652U 12036A   22044.21698420  .00000037  00000+0  00000+0 0  9998
2 38652   0.0679 285.6611 0002244  30.7873 269.8434  1.00271620 28596
GSAT-10 (GAGAN/PRN 128) 
1 38779U 12051B   22044.51969311 -.00000162  00000+0  00000+0 0  9998
2 38779   0.0555 277.3310 0003161 348.6343 147.6408  1.00271826 34213
LUCH 5B (SDCM/PRN 125)  
1 38977U 12061A   22044.35633340 -.00000134  00000+0  00000+0 0  9990
2 38977   7.0229  63.5370 0000964 325.1555 226.5876  1.00270774 34286
ASTRA 5B (EGNOS/PRN 123)
1 39617U 14011B   22044.50940137  .00000158  00000+0  00000+0 0  9996
2 39617   0.0561 304.4016 0004250   3.8942  50.0629  1.00272293 28777
LUCH 5V (SDCM/PRN 141)  
1 39727U 14023A   22044.52196079 -.00000265  00000+0  00000+0 0  9991
2 39727   1.2118  72.6744 0002747 291.4009  61.9771  1.00267338 28469
GSAT-15 (GAGAN/PRN 139) 
1 41028U 15065A   22044.52178635 -.00000255  00000+0  00000+0 0  9992
2 41028   0.0152  95.7246 0001293 218.4918 110.6318  1.00271957 22912
E 117 W B (WAAS/PRN 131)
1 41589U 16038B   22044.58706176 -.00000008  00000+0  00000+0 0  9994
2 41589   0.0120 238.8658 0000344 212.1893 146.8694  1.00271300 20788
SES-15 (WAAS/PRN 133)   
1 42709U 17026A   22044.57682618  .00000063  00000+0  00000+0 0  9990
2 42709   0.0210  19.9005 0000719 289.0401 273.1161  1.00270324 18258
QZS-2 (QZSS/PRN 184)    
1 42738U 17028A   22043.48105056 -.00000104  00000+0  00000+0 0  9996
2 42738  41.9795 265.9272 0750486 270.0194 280.7854  1.00271910 17246
QZS-3 (QZSS/PRN 189)    
1 42917U 17048A   22044.52841493 -.00000345  00000+0  00000+0 0  9992
2 42917   0.0590 159.0628 0001622 157.2506 144.4600  1.00269687 16361
QZS-4 (QZSS/PRN 185)    
1 42965U 17062A   22044.51154201 -.00000315  00000+0  00000+0 0  9991
2 42965  40.7939   3.7043 0750581 269.2517 192.9910  1.00288218 15923
